ESTCUBE 1               
1 39161U 13021C   21114.18885074  .00000292  00000-0  53761-4 0  9996
2 39161  97.9377 196.6242 0009048 332.6597  27.4139 14.72460251427764
FENGYUN 3C              
1 39260U 13052A   21114.14484141 -.00000006  00000-0  17810-4 0  9995
2 39260  98.5053 157.3303 0012019  47.2764 312.9428 14.15865402392589
CASSIOPE                
1 39265U 13055A   21113.73239508  .00005634  00000-0  15482-3 0  9995
2 39265  80.9687 349.5220 0651386 114.3928 252.6643 14.31858397392165
ZACUBE-1 (TSHEPISOSAT)  
1 39417U 13066B   21113.40453864  .00000438  00000-0  60821-4 0  9998
2 39417  97.5904 100.5931 0058220 343.1650  16.7630 14.81483615400927
CINEMA-3 (KHUSAT-2)     
1 39426U 13066L   21113.65848800  .00000198  00000-0  38343-4 0  9990
2 39426  97.7505  68.3266 0105034 140.1883 220.7090 14.69659109397603
TRITON-1                
1 39427U 13066M   21114.13661535  .00000254  00000-0  48039-4 0  9999
2 39427  97.7705  64.6140 0113677 163.9387 196.5472 14.68203961397446
DELFI-N3XT              
1 39428U 13066N   21113.75327475  .00000445  00000-0  77909-4 0  9999
2 39428  97.7756  62.7037 0119676 178.0074 182.1633 14.67954137396943
GOMX-1                  
1 39430U 13066Q   21114.16952916  .00000440  00000-0  88845-4 0  9998
2 39430  97.8124  40.3575 0149225 286.1886  72.2941 14.59588377395120
BRITE-PL1 (LEM)         
1 39431U 13066R   21113.62511325  .00000098  00000-0  30492-4 0  9998
2 39431  97.7593 358.2931 0203508  88.3000 274.1492 14.47131744391648
ICUBE-1                 
1 39432U 13066S   21113.52344001  .00000515  00000-0  57261-4 0  9990
2 39432  97.4790 134.4447 0030655 224.0539 135.8238 14.90836549402128
HUMSAT-D                
1 39433U 13066T   21113.55406341  .00000913  00000-0  92710-4 0  9990
2 39433  97.4750 141.2708 0029804 202.7954 157.1945 14.92832308402559
VELOX-PII               
1 39438U 13066Y   21113.67301617  .00000385  00000-0  57784-4 0  9993
2 39438  97.6385  91.3997 0071048  24.9081 335.5532 14.78193880398981
FIRST-MOVE              
1 39439U 13066Z   21113.68048744  .00000897  00000-0  11420-3 0  9998
2 39439  97.5962 102.1864 0064251 340.3111  19.5623 14.82538879399834
CUBEBUG-2 (LO-74)       
1 39440U 13066AA  21113.41389505  .00000421  00000-0  64762-4 0  9995
2 39440  97.6717  85.4905 0081204  54.7211 306.1561 14.76211351398301
NEE-02 KRYSAOR          
1 39441U 13066AB  21114.18245612  .00000289  00000-0  47737-4 0  9996
2 39441  97.6812  83.5846 0082902  62.8362 298.1270 14.75159711399379
FUNCUBE-1 (AO-73)       
1 39444U 13066AE  21113.69224629  .00000526  00000-0  70298-4 0  9991
2 39444  97.5815 103.2191 0056984 332.8150  27.0083 14.82384445399321
HINCUBE                 
1 39445U 13066AF  21113.69396609  .00000514  00000-0  69109-4 0  9996
2 39445  97.5829 103.0738 0057055 334.5999  25.2413 14.82215223399270
UWE-3                   
1 39446U 13066AG  21113.41314366  .00000456  00000-0  66369-4 0  9997
2 39446  97.6330  92.4778 0070302  20.0327 340.3620 14.78749424398377
AIST-1 (RS-41)          
1 39492U 13078C   21114.08534134  .00000331  00000-0  33228-4 0  9992
2 39492  82.4162 277.6891 0021413  57.6991 302.6296 14.88017302397416
SPROUT                  
1 39770U 14029E   21114.08915927  .00001596  00000-0  17837-3 0  9992
2 39770  97.9090 225.4323 0009669  34.4755 325.7065 14.88337398375255
UNISAT-6                
1 40012U 14033C   21113.79743576  .00000301  00000-0  51553-4 0  9991
2 40012  97.6813 319.0780 0059613  77.4398 283.3470 14.74286199368143
BUGSAT-1 (TITA)         
1 40014U 14033E   21113.90096150  .00001351  00000-0  12590-3 0  9998
2 40014  98.1058  91.5132 0031557 348.5639  11.4861 14.95717116373413
DUCHIFAT-1              
1 40021U 14033M   21113.71743326  .00000826  00000-0  88763-4 0  9991
2 40021  97.9689  53.3431 0012652 351.8225   8.2785 14.91281034372126
NANOSATC-BR1            
1 40024U 14033Q   21113.78436518  .00000551  00000-0  62493-4 0  9990
2 40024  97.9486  48.6837 0012119 357.3541   2.7610 14.90388656371459
QB50P1                  
1 40025U 14033R   21113.73369231  .00000488  00000-0  57372-4 0  9992
2 40025  97.9312  44.2848 0012572   5.7007 354.4351 14.89399481371271
DTUSAT-2                
1 40030U 14033W   21113.78710304  .00000414  00000-0  50027-4 0  9993
2 40030  97.9149  41.0511 0011949   2.3076 357.8194 14.88954584371185
QB50P2                  
1 40032U 14033Y   21114.08474278  .00000467  00000-0  55696-4 0  9991
2 40032  97.9155  41.3544 0011872   2.1419 357.9847 14.88910824371722
POLYITAN-1              
1 40042U 14033AJ  21113.77831795  .00000544  00000-0  63473-4 0  9996
2 40042  97.9403  45.0890 0014589 355.8688   4.2406 14.89200114371175
TIGRISAT                
1 40043U 14033AK  21113.08317059  .00000239  00000-0  42090-4 0  9996
2 40043  97.6785 319.7930 0061274  77.7133 283.0928 14.74513480367673
AISAT                   
1 40054U 14034B   21113.65442023  .00000665  00000-0  98981-4 0  9995
2 40054  98.3151 264.9347 0012112 213.8071 146.2368 14.78371144367439
CANX-4                  
1 40055U 14034C   21113.60877354  .00000168  00000-0  32952-4 0  9994
2 40055  98.2969 253.4928 0012975 252.8977 107.0810 14.75036396366822
CANX-5                  
1 40056U 14034D   21113.61327619  .00000169  00000-0  33140-4 0  9991
2 40056  98.2969 253.4844 0012988 253.1571 106.8212 14.75027513357631
VELOX-I                 
1 40057U 14034E   21114.04147071  .00000574  00000-0  86991-4 0  9994
2 40057  98.3205 266.3578 0009879 226.3193 133.7189 14.78134690367507
METEOR-M 2              
1 40069U 14037A   21114.06437797 -.00000058  00000-0 -75629-5 0  9995
2 40069  98.4665 145.2551 0007053  98.4978 261.7003 14.20683044352317
DX1                     
1 40071U 14037C   21114.08147193  .00000235  00000-0  37510-4 0  9999
2 40071  98.4573 315.7402 0007482 216.0482 144.0226 14.81481649367243
UKUBE-1                 
1 40074U 14037F   21114.05343995  .00000552  00000-0  72672-4 0  9997
2 40074  98.4366 326.7021 0003809 186.9955 173.1199 14.84518020367838
FIREBIRD 3              
1 40377U 15003B   21113.46808821  .00002620  00000-0  98729-4 0  9994
2 40377  99.0900 243.2295 0118274 357.6658   2.4006 15.22079575344422
FIREBIRD 4              
1 40378U 15003C   21114.10365295  .00002582  00000-0  97189-4 0  9996
2 40378  99.0907 244.1289 0118297 355.3630   4.6495 15.22133454344538
GRIFEX                  
1 40379U 15003D   21114.08599338  .00002105  00000-0  88141-4 0  9990
2 40379  99.0865 233.8929 0129293  26.7366 334.0451 15.17845979343943
CP10 (EXOCUBE)          
1 40380U 15003E   21114.13246225  .00001949  00000-0  86175-4 0  9992
2 40380  99.0881 228.5975 0135200  44.7759 316.4286 15.15560179343591
DEORBITSAIL             
1 40719U 15032E   21113.67994385  .00000562  00000-0  86072-4 0  9991
2 40719  97.8350   0.0842 0014868 287.5094  72.4492 14.77315979311894
NUDT-PHONESAT           
1 40900U 15049B   21114.15607473  .00005249  00000-0  20629-3 0  9996
2 40900  97.4235 128.6368 0011203 340.1631  85.9714 15.26064962310542
XW-2A                   
1 40903U 15049E   21114.16191690  .00004531  00000-0  98047-4 0  9992
2 40903  97.2422 168.8049 0011504 205.0806 236.6436 15.44924307314414
XW-2C                   
1 40906U 15049H   21114.06238045  .00001677  00000-0  88989-4 0  9992
2 40906  97.4868 117.0999 0015286  23.0475  50.0026 15.16643197309325
XW-2D                   
1 40907U 15049J   21114.21010380  .00001846  00000-0  96788-4 0  9994
2 40907  97.4861 117.0221 0014547  19.5186 109.2868 15.16951174309378
LILACSAT-2              
1 40908U 15049K   21114.03453205  .00000724  00000-0  42959-4 0  9997
2 40908  97.5048 114.7714 0016922  32.8593  43.6161 15.14380243308992
XW-2E                   
1 40909U 15049L   21113.97007714  .00002511  00000-0  12178-3 0  9995
2 40909  97.4675 120.7242 0013442   8.1883  22.2452 15.19368967309668
XW-2F                   
1 40910U 15049M   21114.22456109  .00002411  00000-0  11867-3 0  9995
2 40910  97.4737 120.0509 0014606   6.3375  53.9801 15.18872165309496
XW-2B                   
1 40911U 15049N   21114.20991912  .00001864  00000-0  97918-4 0  9993
2 40911  97.4865 117.7102 0014544  20.5574 108.1581 15.16869402309262
KAITUO 1B               
1 40912U 15049P   21114.11685669  .00002802  00000-0  12780-3 0  9999
2 40912  97.4472 124.3039 0013782 339.8122  93.0110 15.21388622309938
TIANWANG 1A (TW-1A)     
1 40928U 15051D   21114.00840459  .00007266  00000-0  15399-3 0  9995
2 40928  97.0821 140.2274 0011249 125.3806 262.7484 15.45308406313280
LAPAN-A2                
1 40931U 15052B   21112.14754832  .00000481  00000-0 -22197-4 0  9990
2 40931   5.9963 293.9413 0013182 329.8562  30.1221 14.76669011300960
LQSAT                   
1 40958U 15057A   21114.13890805  .00000070  00000-0  18354-4 0  9999
2 40958  97.8077 172.6407 0016839 228.3990 131.5787 14.73168958298242
ATHENOXAT 1             
1 41168U 15077C   21114.18374080  .00003939  00000-0  16564-3 0  9999
2 41168  14.9881 299.9432 0010061 138.3393   8.8896 15.15512261296532
GALASSIA                
1 41170U 15077E   21113.75384128  .00002897  00000-0  11140-3 0  9995
2 41170  14.9892 293.9579 0012149 160.2612 199.8180 15.15737019296425
VELOX-II                
1 41171U 15077F   21113.30536143  .00002178  00000-0  83881-4 0  9997
2 41171  14.9924 352.7505 0008486  27.6605 332.4167 15.12429652295935
CHUBUSAT-2              
1 41338U 16012B   21113.58721750  .00000500  00000-0  31941-4 0  9999
2 41338  31.0021 174.7827 0013718 309.9029  50.0400 15.00499362284356
CHUBUSAT-3              
1 41339U 16012C   21114.21430434  .00000584  00000-0  38332-4 0  9990
2 41339  31.0102 168.0810 0013728 324.0270  35.9439 15.00650744284449
HORYU-4                 
1 41340U 16012D   21113.52233294  .00000744  00000-0  49004-4 0  9996
2 41340  31.0039 156.7238 0013803 347.2973  12.7314 15.01839947284528
